KUIPER-00016            
1 63732U 25088J   26024.81448151  .00008797  00000+0  11738-2 0  9992
2 63732  51.9008 305.6025 0010848 283.2892  76.6860 14.80178370 40839
KUIPER-00018            
1 63733U 25088K   26026.71884453  .00006015  00000+0  81643-3 0  9997
2 63733  51.9030 286.1543 0009450 318.3296  41.6946 14.79966322 41274
KUIPER-00019            
1 63734U 25088L   26026.71996317  .00006496  00000+0  87987-3 0  9991
2 63734  51.8952 284.6839 0002214  35.5104 324.6005 14.79957275 41294
KUIPER-00020            
1 63735U 25088M   26026.71615260  .00007746  00000+0  10440-2 0  9995
2 63735  51.9031 288.6919 0006723 313.3732  46.6670 14.79923763 41441
KUIPER-00021            
1 63736U 25088N   26026.71452304 -.00000200  00000+0  29313-5 0  9995
2 63736  51.9025 289.6965 0004658 308.7677  51.2869 14.79941420 41260
KUIPER-00023            
1 63737U 25088P   26025.76814741  .00008972  00000+0  12032-2 0  9997
2 63737  51.9016 295.3462 0009724 320.4681  39.5572 14.79950370 41402
KUIPER-00024            
1 63738U 25088Q   26026.72706357  .00002224  00000+0  32059-3 0  9994
2 63738  51.9067 278.6636 0000652 107.6354 252.4680 14.79939498 41841
KUIPER-00025            
1 63739U 25088R   26026.71733924  .00007063  00000+0  95461-3 0  9996
2 63739  51.9042 287.2164 0000621  96.2778 263.8255 14.79929239 41583
